{
  "type": "FeatureCollection",
  "features": [
    {
      "type": "Feature",
      "properties": {
        "norad_id": 2807,
        "name": "OPS 7218 (TRANSIT 16)",
        "group": "nnss",
        "lat": 57.04910262342479,
        "lon": 173.04938045128432,
        "alt_km": 1052.7336778559302,
        "timestamp": "2025-12-26T16:33:55.840769+00:00",
        "meta_object_name": "OPS 7218 (TRANSIT 16)",
        "meta_object_id": "1967-048A",
        "meta_epoch": "2025-12-26T00:13:29.128224",
        "meta_mean_motion": 13.50724931,
        "meta_eccentricity": 0.00221376,
        "meta_inclination": 89.6734,
        "meta_ra_of_asc_node": 353.576,
        "meta_arg_of_pericenter": 78.7775,
        "meta_mean_anomaly": 335.1226,
        "meta_ephemeris_type": 0,
        "meta_classification_type": "U",
        "meta_norad_cat_id": 2807,
        "meta_element_set_no": 999,
        "meta_rev_at_epoch": 88455,
        "meta_bstar": 0.0001382356,
        "meta_mean_motion_dot": 9.9e-07,
        "meta_mean_motion_ddot": 0,
        "tle_line1": "1 02807U 67048A   25360.00936491  .00000099  00000+0  13824-3 0  9998",
        "tle_line2": "2 02807  89.6734 353.5760 0022137  78.7775 335.1226 13.50724931884558"
      },
      "geometry": {
        "type": "Point",
        "coordinates": [
          173.04938045128432,
          57.04910262342479
        ]
      }
    },
    {
      "type": "Feature",
      "properties": {
        "norad_id": 2965,
        "name": "OPS 4947 (TRANSIT 17)",
        "group": "nnss",
        "lat": -35.46625859731507,
        "lon": 22.835208204087824,
        "alt_km": 1089.0045749160636,
        "timestamp": "2025-12-26T16:33:55.840790+00:00",
        "meta_object_name": "OPS 4947 (TRANSIT 17)",
        "meta_object_id": "1967-092A",
        "meta_epoch": "2025-12-26T00:51:43.162272",
        "meta_mean_motion": 13.53457055,
        "meta_eccentricity": 0.00472033,
        "meta_inclination": 89.2485,
        "meta_ra_of_asc_node": 23.4208,
        "meta_arg_of_pericenter": 195.1171,
        "meta_mean_anomaly": 182.9002,
        "meta_ephemeris_type": 0,
        "meta_classification_type": "U",
        "meta_norad_cat_id": 2965,
        "meta_element_set_no": 999,
        "meta_rev_at_epoch": 87277,
        "meta_bstar": 0.00018182251,
        "meta_mean_motion_dot": 1.34e-06,
        "meta_mean_motion_ddot": 0,
        "tle_line1": "1 02965U 67092A   25360.03591623  .00000134  00000+0  18182-3 0  9991",
        "tle_line2": "2 02965  89.2485  23.4208 0047203 195.1171 182.9002 13.53457055872771"
      },
      "geometry": {
        "type": "Point",
        "coordinates": [
          22.835208204087824,
          -35.46625859731507
        ]
      }
    },
    {
      "type": "Feature",
      "properties": {
        "norad_id": 3133,
        "name": "OPS 7034 (TRANSIT 18)",
        "group": "nnss",
        "lat": 17.772821764384997,
        "lon": -86.33039138576328,
        "alt_km": 1086.7410454698902,
        "timestamp": "2025-12-26T16:33:55.840801+00:00",
        "meta_object_name": "OPS 7034 (TRANSIT 18)",
        "meta_object_id": "1968-012A",
        "meta_epoch": "2025-12-26T06:23:15.175968",
        "meta_mean_motion": 13.51568909,
        "meta_eccentricity": 0.00750632,
        "meta_inclination": 90.0284,
        "meta_ra_of_asc_node": 273.6775,
        "meta_arg_of_pericenter": 130.3137,
        "meta_mean_anomaly": 346.1654,
        "meta_ephemeris_type": 0,
        "meta_classification_type": "U",
        "meta_norad_cat_id": 3133,
        "meta_element_set_no": 999,
        "meta_rev_at_epoch": 57101,
        "meta_bstar": 0.00021195925,
        "meta_mean_motion_dot": 1.51e-06,
        "meta_mean_motion_ddot": 0,
        "tle_line1": "1 03133U 68012A   25360.26614787  .00000151  00000+0  21196-3 0  9992",
        "tle_line2": "2 03133  90.0284 273.6775 0075063 130.3137 346.1654 13.51568909571011"
      },
      "geometry": {
        "type": "Point",
        "coordinates": [
          -86.33039138576328,
          17.772821764384997
        ]
      }
    },
    {
      "type": "Feature",
      "properties": {
        "norad_id": 4507,
        "name": "NNSS 19 (TRANSIT 19)",
        "group": "nnss",
        "lat": -20.613224913586798,
        "lon": -125.45508685853768,
        "alt_km": 1063.7282142989216,
        "timestamp": "2025-12-26T16:33:55.840812+00:00",
        "meta_object_name": "NNSS 19 (TRANSIT 19)",
        "meta_object_id": "1970-067A",
        "meta_epoch": "2025-12-26T04:13:40.386432",
        "meta_mean_motion": 13.51317842,
        "meta_eccentricity": 0.01702188,
        "meta_inclination": 90.0047,
        "meta_ra_of_asc_node": 234.5429,
        "meta_arg_of_pericenter": 254.0449,
        "meta_mean_anomaly": 104.1891,
        "meta_ephemeris_type": 0,
        "meta_classification_type": "U",
        "meta_norad_cat_id": 4507,
        "meta_element_set_no": 999,
        "meta_rev_at_epoch": 72403,
        "meta_bstar": 0.00012846967,
        "meta_mean_motion_dot": 9.9e-07,
        "meta_mean_motion_ddot": 0,
        "tle_line1": "1 04507U 70067A   25360.17616188  .00000099  00000+0  12847-3 0  9992",
        "tle_line2": "2 04507  90.0047 234.5429 0170218 254.0449 104.1891 13.51317842724039"
      },
      "geometry": {
        "type": "Point",
        "coordinates": [
          -125.45508685853768,
          -20.613224913586798
        ]
      }
    },
    {
      "type": "Feature",
      "properties": {
        "norad_id": 6909,
        "name": "NNSS 20 (TRANSIT 20)",
        "group": "nnss",
        "lat": -22.31178454822671,
        "lon": -105.21400309737679,
        "alt_km": 939.460798188934,
        "timestamp": "2025-12-26T16:33:55.840822+00:00",
        "meta_object_name": "NNSS 20 (TRANSIT 20)",
        "meta_object_id": "1973-081A",
        "meta_epoch": "2025-12-26T04:24:52.750368",
        "meta_mean_motion": 13.7144138,
        "meta_eccentricity": 0.01560589,
        "meta_inclination": 89.8559,
        "meta_ra_of_asc_node": 254.8528,
        "meta_arg_of_pericenter": 38.4618,
        "meta_mean_anomaly": 322.7546,
        "meta_ephemeris_type": 0,
        "meta_classification_type": "U",
        "meta_norad_cat_id": 6909,
        "meta_element_set_no": 999,
        "meta_rev_at_epoch": 80545,
        "meta_bstar": 0.0002770545,
        "meta_mean_motion_dot": 2.83e-06,
        "meta_mean_motion_ddot": 0,
        "tle_line1": "1 06909U 73081A   25360.18394387  .00000283  00000+0  27705-3 0  9998",
        "tle_line2": "2 06909  89.8559 254.8528 0156058  38.4618 322.7546 13.71441380805452"
      },
      "geometry": {
        "type": "Point",
        "coordinates": [
          -105.21400309737679,
          -22.31178454822671
        ]
      }
    },
    {
      "type": "Feature",
      "properties": {
        "norad_id": 10457,
        "name": "TRANSAT",
        "group": "nnss",
        "lat": -43.99460553394279,
        "lon": -101.55658374967187,
        "alt_km": 1077.3158610802375,
        "timestamp": "2025-12-26T16:33:55.840832+00:00",
        "meta_object_name": "TRANSAT",
        "meta_object_id": "1977-106A",
        "meta_epoch": "2025-12-26T05:02:40.518816",
        "meta_mean_motion": 13.48945696,
        "meta_eccentricity": 0.00265932,
        "meta_inclination": 89.6474,
        "meta_ra_of_asc_node": 78.1198,
        "meta_arg_of_pericenter": 151.4033,
        "meta_mean_anomaly": 262.4311,
        "meta_ephemeris_type": 0,
        "meta_classification_type": "U",
        "meta_norad_cat_id": 10457,
        "meta_element_set_no": 999,
        "meta_rev_at_epoch": 36925,
        "meta_bstar": 0.00012343794,
        "meta_mean_motion_dot": 8.8e-07,
        "meta_mean_motion_ddot": 0,
        "tle_line1": "1 10457U 77106A   25360.21019119  .00000088  00000+0  12344-3 0  9990",
        "tle_line2": "2 10457  89.6474  78.1198 0026593 151.4033 262.4311 13.48945696369252"
      },
      "geometry": {
        "type": "Point",
        "coordinates": [
          -101.55658374967187,
          -43.99460553394279
        ]
      }
    },
    {
      "type": "Feature",
      "properties": {
        "norad_id": 12458,
        "name": "NOVA 1",
        "group": "nnss",
        "lat": -82.16108700944282,
        "lon": 90.11591615735267,
        "alt_km": 1190.1147525031301,
        "timestamp": "2025-12-26T16:33:55.840843+00:00",
        "meta_object_name": "NOVA 1",
        "meta_object_id": "1981-044A",
        "meta_epoch": "2025-12-26T06:21:41.464800",
        "meta_mean_motion": 13.23279972,
        "meta_eccentricity": 0.00156868,
        "meta_inclination": 89.8525,
        "meta_ra_of_asc_node": 91.194,
        "meta_arg_of_pericenter": 70.7289,
        "meta_mean_anomaly": 342.9728,
        "meta_ephemeris_type": 0,
        "meta_classification_type": "U",
        "meta_norad_cat_id": 12458,
        "meta_element_set_no": 999,
        "meta_rev_at_epoch": 15365,
        "meta_bstar": 0.00011734721,
        "meta_mean_motion_dot": 5.9e-07,
        "meta_mean_motion_ddot": 0,
        "tle_line1": "1 12458U 81044A   25360.26506325  .00000059  00000+0  11735-3 0  9995",
        "tle_line2": "2 12458  89.8525  91.1940 0015686  70.7289 342.9728 13.23279972153652"
      },
      "geometry": {
        "type": "Point",
        "coordinates": [
          90.11591615735267,
          -82.16108700944282
        ]
      }
    }
  ]
}